NORAD_CAT_ID,OBJECT_NAME,OBJECT_TYPE,EPOCH,MEAN_MOTION,ECCENTRICITY,INCLINATION,RA_OF_ASC_NODE,ARG_OF_PERICENTER,MEAN_ANOMALY,BSTAR,MEAN_MOTION_DOT,MEAN_MOTION_DDOT,TLE_LINE0,TLE_LINE1,TLE_LINE2,SEMIMAJOR_AXIS,PERIOD,APOGEE,PERIGEE,DECAYED
51795.0,STARLINK-3586,PAYLOAD,2024-05-15 04:31:54,15.08872309,0.0001306,53.2165,87.8823,80.0216,280.0923,0.00033058,4.982e-05,0.0,0 STARLINK-3586,1 51795U 22017AD  24136.18882739  .00004982  00000-0  33058-3 0  9996,2 51795  53.2165  87.8823 0001306  80.0216 280.0923 15.08872309123759,6917.782,95.436,540.55,538.743,0.0
51795.0,STARLINK-3586,PAYLOAD,2024-05-15 20:25:46,15.08848955,0.0001486,53.2165,84.9091,85.4508,274.6654,-6.7565e-05,-1.363e-05,0.0,0 STARLINK-3586,1 51795U 22017AD  24136.85123487 -.00001363  00000-0 -67565-4 0  9991,2 51795  53.2165  84.9091 0001486  85.4508 274.6654 15.08848955123857,6917.853,95.437,540.746,538.69,0.0
51795.0,STARLINK-3586,PAYLOAD,2024-05-16 02:47:19,15.08849493,0.000149,53.2171,83.7189,92.2398,267.8765,-4.2773e-05,-9.69e-06,0.0,0 STARLINK-3586,1 51795U 22017AD  24137.11619348 -.00000969  00000-0 -42773-4 0  9992,2 51795  53.2171  83.7189 0001490  92.2398 267.8765 15.08849493123896,6917.851,95.437,540.747,538.686,0.0
51795.0,STARLINK-3586,PAYLOAD,2024-05-17 02:38:05,15.08868031,0.0001465,53.2175,79.2589,94.8701,265.2459,0.0004241,6.473e-05,0.0,0 STARLINK-3586,1 51795U 22017AD  24138.10978037  .00006473  00000-0  42410-3 0  9996,2 51795  53.2175  79.2589 0001465  94.8701 265.2459 15.08868031124041,6917.795,95.436,540.673,538.646,0.0
51795.0,STARLINK-3586,PAYLOAD,2024-05-17 20:07:21,15.08828587,0.0001404,53.2159,75.9874,85.8806,274.2346,-6.1717e-05,-1.27e-05,0.0,0 STARLINK-3586,1 51795U 22017AD  24138.83844042 -.00001270  00000-0 -61717-4 0  9998,2 51795  53.2159  75.9874 0001404  85.8806 274.2346 15.08828587124151,6917.915,95.438,540.752,538.809,0.0
51795.0,STARLINK-3586,PAYLOAD,2024-05-18 02:28:53,15.08830589,0.0001506,53.2161,74.7978,101.212,258.9041,-9.4536e-06,-4.38e-06,0.0,0 STARLINK-3586,1 51795U 22017AD  24139.10340174 -.00000438  00000-0 -94536-5 0  9997,2 51795  53.2161  74.7978 0001506 101.2120 258.9041 15.08830589124191,6917.909,95.438,540.816,538.732,0.0
51795.0,STARLINK-3586,PAYLOAD,2024-05-18 19:58:07,15.08848037,0.00015,53.2158,71.5269,104.6136,255.5023,0.0001837,2.637e-05,0.0,0 STARLINK-3586,1 51795U 22017AD  24139.83203301  .00002637  00000-0  18370-3 0  9998,2 51795  53.2158  71.5269 0001500 104.6136 255.5023 15.08848037124306,6917.856,95.437,540.759,538.683,0.0
51795.0,STARLINK-3586,PAYLOAD,2024-05-19 00:44:17,15.08858527,0.000168,53.2161,70.6371,107.945,252.1726,0.0011545,0.00018143,0.0,0 STARLINK-3586,1 51795U 22017AD  24140.03075495  .00018143  00000-0  11545-2 0  9998,2 51795  53.2161  70.6371 0001680 107.9450 252.1726 15.08858527124339,6917.824,95.436,540.851,538.527,0.0
51795.0,STARLINK-3586,PAYLOAD,2024-05-19 19:48:55,15.08851096,0.0001827,53.2164,67.0664,98.6578,261.4621,0.00043927,6.712e-05,0.0,0 STARLINK-3586,1 51795U 22017AD  24140.82563783  .00006712  00000-0  43927-3 0  9996,2 51795  53.2164  67.0664 0001827  98.6578 261.4621 15.08851096124451,6917.846,95.437,540.975,538.448,0.0
51795.0,STARLINK-3586,PAYLOAD,2024-05-20 02:10:28,15.08823838,0.0001519,53.2168,65.878,92.5172,267.5994,0.0014702,0.00023177,0.0,0 STARLINK-3586,1 51795U 22017AD  24141.09060290  .00023177  00000-0  14702-2 0  9993,2 51795  53.2168  65.8780 0001519  92.5172 267.5994 15.08823838124498,6917.93,95.439,540.846,538.744,0.0
51795.0,STARLINK-3586,PAYLOAD,2024-05-20 05:21:14,15.08827242,0.000148,53.2165,65.2825,100.6806,259.4353,0.00088917,0.00013887,0.0,0 STARLINK-3586,1 51795U 22017AD  24141.22308318  .00013887  00000-0  88917-3 0  9991,2 51795  53.2165  65.2825 0001480 100.6806 259.4353 15.08827242124516,6917.919,95.438,540.808,538.761,0.0
51795.0,STARLINK-3586,PAYLOAD,2024-05-21 03:36:38,15.08848939,0.0001885,53.2172,61.1152,104.4612,255.659,0.0010294,0.00016137,0.0,0 STARLINK-3586,1 51795U 22017AD  24142.15044912  .00016137  00000-0  10294-2 0  9994,2 51795  53.2172  61.1152 0001885 104.4612 255.6590 15.08848939124650,6917.853,95.437,541.022,538.414,0.0
51795.0,STARLINK-3586,PAYLOAD,2024-05-21 22:41:16,15.08852887,0.0002629,53.2181,57.5516,127.0456,233.0777,0.00062212,9.63e-05,0.0,0 STARLINK-3586,1 51795U 22017AD  24142.94532655  .00009630  00000-0  62212-3 0  9995,2 51795  53.2181  57.5516 0002629 127.0456 233.0777 15.08852887124774,6917.841,95.437,541.525,537.887,0.0
51795.0,STARLINK-3586,PAYLOAD,2024-05-22 03:27:25,15.08856331,0.0001743,53.2175,56.6575,93.0466,267.0726,0.00066326,0.00010288,0.0,0 STARLINK-3586,1 51795U 22017AD  24143.14404646  .00010288  00000-0  66326-3 0  9997,2 51795  53.2175  56.6575 0001743  93.0466 267.0726 15.08856331124804,6917.83,95.437,540.901,538.49,0.0
51795.0,STARLINK-3586,PAYLOAD,2024-05-23 03:18:12,15.08856766,0.0001814,53.218,52.1968,105.6059,254.5133,0.00058993,9.117e-05,0.0,0 STARLINK-3586,1 51795U 22017AD  24144.13764314  .00009117  00000-0  58993-3 0  9998,2 51795  53.2180  52.1968 0001814 105.6059 254.5133 15.08856766124955,6917.829,95.436,540.949,538.439,0.0
51795.0,STARLINK-3586,PAYLOAD,2024-05-24 03:08:59,15.08854432,0.0001627,53.2182,47.7341,107.588,252.529,0.00070544,0.00010961,0.0,0 STARLINK-3586,1 51795U 22017AD  24145.13124162  .00010961  00000-0  70544-3 0  9995,2 51795  53.2182  47.7341 0001627 107.5880 252.5290 15.08854432125105,6917.836,95.437,540.827,538.576,0.0
51795.0,STARLINK-3586,PAYLOAD,2024-05-24 20:38:13,15.08842272,0.0002271,53.2183,44.46,128.0822,232.0375,0.00068715,0.00010666,0.0,0 STARLINK-3586,1 51795U 22017AD  24145.85988239  .00010666  00000-0  68715-3 0  9996,2 51795  53.2183  44.4600 0002271 128.0822 232.0375 15.08842272125216,6917.873,95.437,541.309,538.167,0.0
51795.0,STARLINK-3586,PAYLOAD,2024-05-24 22:13:36,15.08846421,0.000209,53.2183,44.162,124.5601,235.5588,0.0003593,5.436e-05,0.0,0 STARLINK-3586,1 51795U 22017AD  24145.92612088  .00005436  00000-0  35930-3 0  9992,2 51795  53.2183  44.1620 0002090 124.5601 235.5588 15.08846421125225,6917.861,95.437,541.172,538.28,0.0
51795.0,STARLINK-3586,PAYLOAD,2024-05-24 23:49:00,15.08848984,0.0001294,53.2174,43.8763,80.4742,279.6397,0.00044631,6.824e-05,0.0,0 STARLINK-3586,1 51795U 22017AD  24145.99236317  .00006824  00000-0  44631-3 0  9996,2 51795  53.2174  43.8763 0001294  80.4742 279.6397 15.08848984125234,6917.853,95.437,540.613,538.823,0.0
51795.0,STARLINK-3586,PAYLOAD,2024-05-25 20:29:01,15.08833016,0.0001231,53.2167,40.0078,84.2044,275.9088,0.00023833,3.506e-05,0.0,0 STARLINK-3586,1 51795U 22017AD  24146.85349045  .00003506  00000-0  23833-3 0  9990,2 51795  53.2167  40.0078 0001231  84.2044 275.9088 15.08833016125362,6917.902,95.438,540.618,538.915,0.0
51795.0,STARLINK-3586,PAYLOAD,2024-05-25 23:39:51,15.0867494,0.0001183,53.217,39.4276,6.1615,353.9391,-0.0045033,-0.00070931,0.0,0 STARLINK-3586,1 51795U 22017AD  24146.98601072 -.00070931  00000-0 -45033-2 0  9998,2 51795  53.2170  39.4276 0001183   6.1615 353.9391 15.08674940125386,6918.385,95.448,541.068,539.432,0.0
51795.0,STARLINK-3586,PAYLOAD,2024-05-26 07:36:43,15.08849828,0.0001323,53.2168,37.9278,86.2423,273.872,0.00066732,0.00010351,0.0,0 STARLINK-3586,1 51795U 22017AD  24147.31717075  .00010351  00000-0  66732-3 0  9995,2 51795  53.2168  37.9278 0001323  86.2423 273.8720 15.08849828125431,6917.85,95.437,540.631,538.8,0.0
51795.0,STARLINK-3586,PAYLOAD,2024-05-26 23:30:34,15.08851177,0.0001311,53.2173,34.9563,91.7341,268.3801,0.00041114,6.263e-05,0.0,0 STARLINK-3586,1 51795U 22017AD  24147.97956896  .00006263  00000-0  41114-3 0  9997,2 51795  53.2173  34.9563 0001311  91.7341 268.3801 15.08851177125538,6917.846,95.437,540.618,538.804,0.0
51795.0,STARLINK-3586,PAYLOAD,2024-05-27 01:05:57,15.08849834,0.0001467,53.2175,34.6589,95.8214,264.2945,0.00040406,6.15e-05,0.0,0 STARLINK-3586,1 51795U 22017AD  24148.04580759  .00006150  00000-0  40406-3 0  9995,2 51795  53.2175  34.6589 0001467  95.8214 264.2945 15.08849834125543,6917.85,95.437,540.73,538.7,0.0
51795.0,STARLINK-3586,PAYLOAD,2024-05-27 09:02:53,15.08843145,0.0001156,53.2182,33.1806,91.5016,268.6109,0.0001867,2.685e-05,0.0,0 STARLINK-3586,1 51795U 22017AD  24148.37700963  .00002685  00000-0  18670-3 0  9999,2 51795  53.2182  33.1806 0001156  91.5016 268.6109 15.08843145125599,6917.871,95.437,540.535,538.936,0.0
51795.0,STARLINK-3586,PAYLOAD,2024-05-27 21:45:58,15.08838224,0.0001408,53.2181,30.7965,97.498,262.6172,-1.2843e-05,-4.92e-06,0.0,0 STARLINK-3586,1 51795U 22017AD  24148.90693221 -.00000492  00000-0 -12843-4 0  9999,2 51795  53.2181  30.7965 0001408  97.4980 262.6172 15.08838224125677,6917.886,95.438,540.725,538.777,0.0
51795.0,STARLINK-3586,PAYLOAD,2024-05-27 23:21:22,15.08836936,0.0001365,53.218,30.4978,96.0292,264.0855,2.253e-05,7.1e-07,0.0,0 STARLINK-3586,1 51795U 22017AD  24148.97317349  .00000071  00000-0  22530-4 0  9995,2 51795  53.2180  30.4978 0001365  96.0292 264.0855 15.08836936125683,6917.89,95.438,540.699,538.81,0.0
51795.0,STARLINK-3586,PAYLOAD,2024-05-28 08:53:40,15.08837999,0.0001492,53.2186,28.7156,105.9713,254.1443,9.8677e-06,-1.31e-06,0.0,0 STARLINK-3586,1 51795U 22017AD  24149.37061323 -.00000131  00000-0  98677-5 0  9992,2 51795  53.2186  28.7156 0001492 105.9713 254.1443 15.08837999125746,6917.887,95.438,540.784,538.719,0.0
51795.0,STARLINK-3586,PAYLOAD,2024-05-28 20:01:22,15.08844651,0.0001633,53.22,26.636,113.4463,246.6701,6.1904e-05,6.97e-06,0.0,0 STARLINK-3586,1 51795U 22017AD  24149.83429121  .00000697  00000-0  61904-4 0  9995,2 51795  53.2200  26.6360 0001633 113.4463 246.6701 15.08844651125814,6917.866,95.437,540.861,538.601,0.0
51795.0,STARLINK-3586,PAYLOAD,2024-05-29 02:22:54,15.08850704,0.0001418,53.2191,25.4375,87.8662,272.2493,9.4862e-05,1.223e-05,0.0,0 STARLINK-3586,1 51795U 22017AD  24150.09924569  .00001223  00000-0  94862-4 0  9996,2 51795  53.2191  25.4375 0001418  87.8662 272.2493 15.08850704125855,6917.848,95.437,540.694,538.732,0.0
